{
  "type": "FeatureCollection",
  "features": [
    {
      "type": "Feature",
      "properties": {
        "norad_id": 38709,
        "name": "EXACTVIEW-1 (ADS-1B)",
        "group": "resource",
        "lat": -58.21794471491847,
        "lon": -102.44450256761739,
        "alt_km": 820.0987908519874,
        "timestamp": "2025-12-09T23:33:23.506110+00:00",
        "meta_object_name": "EXACTVIEW-1 (ADS-1B)",
        "meta_object_id": "2012-039C",
        "meta_epoch": "2025-12-09T14:00:35.904096",
        "meta_mean_motion": 14.24906198,
        "meta_eccentricity": 0.00108373,
        "meta_inclination": 98.9636,
        "meta_ra_of_asc_node": 91.9076,
        "meta_arg_of_pericenter": 3.3781,
        "meta_mean_anomaly": 356.7468,
        "meta_ephemeris_type": 0,
        "meta_classification_type": "U",
        "meta_norad_cat_id": 38709,
        "meta_element_set_no": 999,
        "meta_rev_at_epoch": 69570,
        "meta_bstar": 0.00015812296,
        "meta_mean_motion_dot": 3.23e-06,
        "meta_mean_motion_ddot": 0,
        "tle_line1": "1 38709U 12039C   25343.58374889  .00000323  00000+0  15812-3 0  9998",
        "tle_line2": "2 38709  98.9636  91.9076 0010837   3.3781 356.7468 14.24906198695703"
      },
      "geometry": {
        "type": "Point",
        "coordinates": [
          -102.44450256761739,
          -58.21794471491847
        ]
      }
    },
    {
      "type": "Feature",
      "properties": {
        "norad_id": 38755,
        "name": "SPOT 6",
        "group": "resource",
        "lat": -64.94278241400022,
        "lon": 66.68279749824917,
        "alt_km": 705.6316199246003,
        "timestamp": "2025-12-09T23:33:23.506121+00:00",
        "meta_object_name": "SPOT 6",
        "meta_object_id": "2012-047A",
        "meta_epoch": "2025-12-09T15:37:40.095264",
        "meta_mean_motion": 14.58599738,
        "meta_eccentricity": 0.00010805,
        "meta_inclination": 98.1572,
        "meta_ra_of_asc_node": 48.4923,
        "meta_arg_of_pericenter": 95.187,
        "meta_mean_anomaly": 264.9453,
        "meta_ephemeris_type": 0,
        "meta_classification_type": "U",
        "meta_norad_cat_id": 38755,
        "meta_element_set_no": 999,
        "meta_rev_at_epoch": 70542,
        "meta_bstar": 0.00020431536,
        "meta_mean_motion_dot": 9.05e-06,
        "meta_mean_motion_ddot": 0,
        "tle_line1": "1 38755U 12047A   25343.65115851  .00000905  00000+0  20432-3 0  9998",
        "tle_line2": "2 38755  98.1572  48.4923 0001080  95.1870 264.9453 14.58599738705421"
      },
      "geometry": {
        "type": "Point",
        "coordinates": [
          66.68279749824917,
          -64.94278241400022
        ]
      }
    },
    {
      "type": "Feature",
      "properties": {
        "norad_id": 39019,
        "name": "PLEIADES 1B",
        "group": "resource",
        "lat": -12.88066208176515,
        "lon": -125.20801895926239,
        "alt_km": 702.6999767628386,
        "timestamp": "2025-12-09T23:33:23.506131+00:00",
        "meta_object_name": "PLEIADES 1B",
        "meta_object_id": "2012-068A",
        "meta_epoch": "2025-12-09T14:26:33.965664",
        "meta_mean_motion": 14.58549133,
        "meta_eccentricity": 0.00012457,
        "meta_inclination": 98.1794,
        "meta_ra_of_asc_node": 56.3031,
        "meta_arg_of_pericenter": 81.2042,
        "meta_mean_anomaly": 278.9298,
        "meta_ephemeris_type": 0,
        "meta_classification_type": "U",
        "meta_norad_cat_id": 39019,
        "meta_element_set_no": 999,
        "meta_rev_at_epoch": 69321,
        "meta_bstar": 0.0002088753,
        "meta_mean_motion_dot": 9.25e-06,
        "meta_mean_motion_ddot": 0,
        "tle_line1": "1 39019U 12068A   25343.60178201  .00000925  00000+0  20888-3 0  9995",
        "tle_line2": "2 39019  98.1794  56.3031 0001245  81.2042 278.9298 14.58549133693218"
      },
      "geometry": {
        "type": "Point",
        "coordinates": [
          -125.20801895926239,
          -12.88066208176515
        ]
      }
    },
    {
      "type": "Feature",
      "properties": {
        "norad_id": 39030,
        "name": "GOKTURK 2",
        "group": "resource",
        "lat": -61.469917097722615,
        "lon": -8.619233801933053,
        "alt_km": 651.9317701540194,
        "timestamp": "2025-12-09T23:33:23.506142+00:00",
        "meta_object_name": "GOKTURK 2",
        "meta_object_id": "2012-073A",
        "meta_epoch": "2025-12-09T14:19:19.930944",
        "meta_mean_motion": 14.75284555,
        "meta_eccentricity": 9.203e-05,
        "meta_inclination": 97.689,
        "meta_ra_of_asc_node": 185.4046,
        "meta_arg_of_pericenter": 102.0956,
        "meta_mean_anomaly": 258.0357,
        "meta_ephemeris_type": 0,
        "meta_classification_type": "U",
        "meta_norad_cat_id": 39030,
        "meta_element_set_no": 999,
        "meta_rev_at_epoch": 69655,
        "meta_bstar": 0.00016578195,
        "meta_mean_motion_dot": 1.075e-05,
        "meta_mean_motion_ddot": 0,
        "tle_line1": "1 39030U 12073A   25343.59675846  .00001075  00000+0  16578-3 0  9997",
        "tle_line2": "2 39030  97.6890 185.4046 0000920 102.0956 258.0357 14.75284555696555"
      },
      "geometry": {
        "type": "Point",
        "coordinates": [
          -8.619233801933053,
          -61.469917097722615
        ]
      }
    },
    {
      "type": "Feature",
      "properties": {
        "norad_id": 39084,
        "name": "LANDSAT 8",
        "group": "resource",
        "lat": 16.871000978674562,
        "lon": 49.58695268993492,
        "alt_km": 702.7869364604212,
        "timestamp": "2025-12-09T23:33:23.506152+00:00",
        "meta_object_name": "LANDSAT 8",
        "meta_object_id": "2013-008A",
        "meta_epoch": "2025-12-09T15:14:17.373984",
        "meta_mean_motion": 14.57109735,
        "meta_eccentricity": 0.00011204,
        "meta_inclination": 98.2075,
        "meta_ra_of_asc_node": 51.7542,
        "meta_arg_of_pericenter": 87.4694,
        "meta_mean_anomaly": 272.6633,
        "meta_ephemeris_type": 0,
        "meta_classification_type": "U",
        "meta_norad_cat_id": 39084,
        "meta_element_set_no": 999,
        "meta_rev_at_epoch": 67029,
        "meta_bstar": 0.00018184084,
        "meta_mean_motion_dot": 7.74e-06,
        "meta_mean_motion_ddot": 0,
        "tle_line1": "1 39084U 13008A   25343.63492331  .00000774  00000+0  18184-3 0  9996",
        "tle_line2": "2 39084  98.2075  51.7542 0001120  87.4694 272.6633 14.57109735670298"
      },
      "geometry": {
        "type": "Point",
        "coordinates": [
          49.58695268993492,
          16.871000978674562
        ]
      }
    },
    {
      "type": "Feature",
      "properties": {
        "norad_id": 39086,
        "name": "SARAL",
        "group": "resource",
        "lat": -63.07918126077635,
        "lon": -29.2865751614684,
        "alt_km": 791.012960048809,
        "timestamp": "2025-12-09T23:33:23.506163+00:00",
        "meta_object_name": "SARAL",
        "meta_object_id": "2013-009A",
        "meta_epoch": "2025-12-09T14:02:22.446528",
        "meta_mean_motion": 14.32755519,
        "meta_eccentricity": 0.00028042,
        "meta_inclination": 98.5504,
        "meta_ra_of_asc_node": 167.5566,
        "meta_arg_of_pericenter": 114.7939,
        "meta_mean_anomaly": 245.3537,
        "meta_ephemeris_type": 0,
        "meta_classification_type": "U",
        "meta_norad_cat_id": 39086,
        "meta_element_set_no": 999,
        "meta_rev_at_epoch": 66845,
        "meta_bstar": 0.00010570712,
        "meta_mean_motion_dot": 2.44e-06,
        "meta_mean_motion_ddot": 0,
        "tle_line1": "1 39086U 13009A   25343.58498202  .00000244  00000+0  10571-3 0  9990",
        "tle_line2": "2 39086  98.5504 167.5566 0002804 114.7939 245.3537 14.32755519668453"
      },
      "geometry": {
        "type": "Point",
        "coordinates": [
          -29.2865751614684,
          -63.07918126077635
        ]
      }
    },
    {
      "type": "Feature",
      "properties": {
        "norad_id": 39150,
        "name": "GAOFEN-1",
        "group": "resource",
        "lat": -51.26767447326915,
        "lon": 64.7008967880713,
        "alt_km": 658.8385229007181,
        "timestamp": "2025-12-09T23:33:23.506173+00:00",
        "meta_object_name": "GAOFEN-1",
        "meta_object_id": "2013-018A",
        "meta_epoch": "2025-12-09T15:39:36.614304",
        "meta_mean_motion": 14.76527469,
        "meta_eccentricity": 0.00179701,
        "meta_inclination": 97.9327,
        "meta_ra_of_asc_node": 54.3663,
        "meta_arg_of_pericenter": 152.418,
        "meta_mean_anomaly": 207.7987,
        "meta_ephemeris_type": 0,
        "meta_classification_type": "U",
        "meta_norad_cat_id": 39150,
        "meta_element_set_no": 999,
        "meta_rev_at_epoch": 68027,
        "meta_bstar": 0.00024809524,
        "meta_mean_motion_dot": 1.683e-05,
        "meta_mean_motion_ddot": 0,
        "tle_line1": "1 39150U 13018A   25343.65250711  .00001683  00000+0  24810-3 0  9990",
        "tle_line2": "2 39150  97.9327  54.3663 0017970 152.4180 207.7987 14.76527469680273"
      },
      "geometry": {
        "type": "Point",
        "coordinates": [
          64.7008967880713,
          -51.26767447326915
        ]
      }
    }
  ]
}